<?xml version="1.0" encoding="UTF-8"?>
<ndm xmlns:xsi="https://www.w3.org/2001/XMLSchema-instance" xsi:noNamespaceSchemaLocation="https://sanaregistry.org/r/ndmxml/ndmxml-1.0-master.xsd">
<omm id="CCSDS_OMM_VERS" version="2.0">
<header><CREATION_DATE/><ORIGINATOR/></header><body><segment><metadata><OBJECT_NAME>BSAT-4B</OBJECT_NAME><OBJECT_ID>2020-056A</OBJECT_ID><CENTER_NAME>EARTH</CENTER_NAME><REF_FRAME>TEME</REF_FRAME><TIME_SYSTEM>UTC</TIME_SYSTEM><MEAN_ELEMENT_THEORY>SGP4</MEAN_ELEMENT_THEORY></metadata><data><meanElements><EPOCH>2020-09-08T11:38:58.494336</EPOCH><MEAN_MOTION>1.00338020</MEAN_MOTION><ECCENTRICITY>.0004303</ECCENTRICITY><INCLINATION>0.0440</INCLINATION><RA_OF_ASC_NODE>306.1230</RA_OF_ASC_NODE><ARG_OF_PERICENTER>9.7562</ARG_OF_PERICENTER><MEAN_ANOMALY>312.2846</MEAN_ANOMALY></meanElements><tleParameters><EPHEMERIS_TYPE>0</EPHEMERIS_TYPE><CLASSIFICATION_TYPE>U</CLASSIFICATION_TYPE><NORAD_CAT_ID>46112</NORAD_CAT_ID><ELEMENT_SET_NO>999</ELEMENT_SET_NO><REV_AT_EPOCH>26</REV_AT_EPOCH><BSTAR>.00000E-0</BSTAR><MEAN_MOTION_DOT>-3.43E-6</MEAN_MOTION_DOT><MEAN_MOTION_DDOT>0</MEAN_MOTION_DDOT></tleParameters></data></segment></body></omm>
<omm id="CCSDS_OMM_VERS" version="2.0">
<header><CREATION_DATE/><ORIGINATOR/></header><body><segment><metadata><OBJECT_NAME>MEV-2</OBJECT_NAME><OBJECT_ID>2020-056B</OBJECT_ID><CENTER_NAME>EARTH</CENTER_NAME><REF_FRAME>TEME</REF_FRAME><TIME_SYSTEM>UTC</TIME_SYSTEM><MEAN_ELEMENT_THEORY>SGP4</MEAN_ELEMENT_THEORY></metadata><data><meanElements><EPOCH>2020-09-06T01:03:33.024672</EPOCH><MEAN_MOTION>1.89665302</MEAN_MOTION><ECCENTRICITY>.5679467</ECCENTRICITY><INCLINATION>3.6163</INCLINATION><RA_OF_ASC_NODE>121.2949</RA_OF_ASC_NODE><ARG_OF_PERICENTER>184.8189</ARG_OF_PERICENTER><MEAN_ANOMALY>113.1302</MEAN_ANOMALY></meanElements><tleParameters><EPHEMERIS_TYPE>0</EPHEMERIS_TYPE><CLASSIFICATION_TYPE>U</CLASSIFICATION_TYPE><NORAD_CAT_ID>46113</NORAD_CAT_ID><ELEMENT_SET_NO>999</ELEMENT_SET_NO><REV_AT_EPOCH>42</REV_AT_EPOCH><BSTAR>.00000E+0</BSTAR><MEAN_MOTION_DOT>-8.5E-7</MEAN_MOTION_DOT><MEAN_MOTION_DDOT>0</MEAN_MOTION_DDOT></tleParameters></data></segment></body></omm>
<omm id="CCSDS_OMM_VERS" version="2.0">
<header><CREATION_DATE/><ORIGINATOR/></header><body><segment><metadata><OBJECT_NAME>GALAXY 30</OBJECT_NAME><OBJECT_ID>2020-056C</OBJECT_ID><CENTER_NAME>EARTH</CENTER_NAME><REF_FRAME>TEME</REF_FRAME><TIME_SYSTEM>UTC</TIME_SYSTEM><MEAN_ELEMENT_THEORY>SGP4</MEAN_ELEMENT_THEORY></metadata><data><meanElements><EPOCH>2020-09-09T01:20:01.536576</EPOCH><MEAN_MOTION>1.00272981</MEAN_MOTION><ECCENTRICITY>.0000519</ECCENTRICITY><INCLINATION>0.0163</INCLINATION><RA_OF_ASC_NODE>355.8041</RA_OF_ASC_NODE><ARG_OF_PERICENTER>224.9825</ARG_OF_PERICENTER><MEAN_ANOMALY>232.3236</MEAN_ANOMALY></meanElements><tleParameters><EPHEMERIS_TYPE>0</EPHEMERIS_TYPE><CLASSIFICATION_TYPE>U</CLASSIFICATION_TYPE><NORAD_CAT_ID>46114</NORAD_CAT_ID><ELEMENT_SET_NO>999</ELEMENT_SET_NO><REV_AT_EPOCH>29</REV_AT_EPOCH><BSTAR>.00000E-0</BSTAR><MEAN_MOTION_DOT>-1.82E-6</MEAN_MOTION_DOT><MEAN_MOTION_DDOT>0</MEAN_MOTION_DDOT></tleParameters></data></segment></body></omm>
<omm id="CCSDS_OMM_VERS" version="2.0">
<header><CREATION_DATE/><ORIGINATOR/></header><body><segment><metadata><OBJECT_NAME>ARIANE 5 DEB [SYLDA]</OBJECT_NAME><OBJECT_ID>2020-056D</OBJECT_ID><CENTER_NAME>EARTH</CENTER_NAME><REF_FRAME>TEME</REF_FRAME><TIME_SYSTEM>UTC</TIME_SYSTEM><MEAN_ELEMENT_THEORY>SGP4</MEAN_ELEMENT_THEORY></metadata><data><meanElements><EPOCH>2020-09-08T17:31:51.330144</EPOCH><MEAN_MOTION>2.28328403</MEAN_MOTION><ECCENTRICITY>.7267677</ECCENTRICITY><INCLINATION>6.0478</INCLINATION><RA_OF_ASC_NODE>114.9450</RA_OF_ASC_NODE><ARG_OF_PERICENTER>197.4140</ARG_OF_PERICENTER><MEAN_ANOMALY>110.3780</MEAN_ANOMALY></meanElements><tleParameters><EPHEMERIS_TYPE>0</EPHEMERIS_TYPE><CLASSIFICATION_TYPE>U</CLASSIFICATION_TYPE><NORAD_CAT_ID>46115</NORAD_CAT_ID><ELEMENT_SET_NO>999</ELEMENT_SET_NO><REV_AT_EPOCH>54</REV_AT_EPOCH><BSTAR>.20646E-2</BSTAR><MEAN_MOTION_DOT>3.997E-5</MEAN_MOTION_DOT><MEAN_MOTION_DDOT>0</MEAN_MOTION_DDOT></tleParameters></data></segment></body></omm>
<omm id="CCSDS_OMM_VERS" version="2.0">
<header><CREATION_DATE/><ORIGINATOR/></header><body><segment><metadata><OBJECT_NAME>ARIANE 5 R/B</OBJECT_NAME><OBJECT_ID>2020-056E</OBJECT_ID><CENTER_NAME>EARTH</CENTER_NAME><REF_FRAME>TEME</REF_FRAME><TIME_SYSTEM>UTC</TIME_SYSTEM><MEAN_ELEMENT_THEORY>SGP4</MEAN_ELEMENT_THEORY></metadata><data><meanElements><EPOCH>2020-09-08T16:39:29.269728</EPOCH><MEAN_MOTION>2.28681443</MEAN_MOTION><ECCENTRICITY>.7268417</ECCENTRICITY><INCLINATION>5.8145</INCLINATION><RA_OF_ASC_NODE>117.4740</RA_OF_ASC_NODE><ARG_OF_PERICENTER>194.8132</ARG_OF_PERICENTER><MEAN_ANOMALY>119.6073</MEAN_ANOMALY></meanElements><tleParameters><EPHEMERIS_TYPE>0</EPHEMERIS_TYPE><CLASSIFICATION_TYPE>U</CLASSIFICATION_TYPE><NORAD_CAT_ID>46116</NORAD_CAT_ID><ELEMENT_SET_NO>999</ELEMENT_SET_NO><REV_AT_EPOCH>55</REV_AT_EPOCH><BSTAR>.18735E-3</BSTAR><MEAN_MOTION_DOT>1.62E-6</MEAN_MOTION_DOT><MEAN_MOTION_DDOT>0</MEAN_MOTION_DDOT></tleParameters></data></segment></body></omm>
<omm id="CCSDS_OMM_VERS" version="2.0">
<header><CREATION_DATE/><ORIGINATOR/></header><body><segment><metadata><OBJECT_NAME>STARLINK-1585</OBJECT_NAME><OBJECT_ID>2020-057A</OBJECT_ID><CENTER_NAME>EARTH</CENTER_NAME><REF_FRAME>TEME</REF_FRAME><TIME_SYSTEM>UTC</TIME_SYSTEM><MEAN_ELEMENT_THEORY>SGP4</MEAN_ELEMENT_THEORY></metadata><data><meanElements><EPOCH>2020-09-09T06:00:00.999648</EPOCH><MEAN_MOTION>15.66239062</MEAN_MOTION><ECCENTRICITY>.0008205</ECCENTRICITY><INCLINATION>52.9981</INCLINATION><RA_OF_ASC_NODE>333.6315</RA_OF_ASC_NODE><ARG_OF_PERICENTER>284.8299</ARG_OF_PERICENTER><MEAN_ANOMALY>16.6846</MEAN_ANOMALY></meanElements><tleParameters><EPHEMERIS_TYPE>0</EPHEMERIS_TYPE><CLASSIFICATION_TYPE>U</CLASSIFICATION_TYPE><NORAD_CAT_ID>46117</NORAD_CAT_ID><ELEMENT_SET_NO>999</ELEMENT_SET_NO><REV_AT_EPOCH>182</REV_AT_EPOCH><BSTAR>.23179E-3</BSTAR><MEAN_MOTION_DOT>2.3914E-4</MEAN_MOTION_DOT><MEAN_MOTION_DDOT>0</MEAN_MOTION_DDOT></tleParameters></data></segment></body></omm>
<omm id="CCSDS_OMM_VERS" version="2.0">
<header><CREATION_DATE/><ORIGINATOR/></header><body><segment><metadata><OBJECT_NAME>STARLINK-1588</OBJECT_NAME><OBJECT_ID>2020-057B</OBJECT_ID><CENTER_NAME>EARTH</CENTER_NAME><REF_FRAME>TEME</REF_FRAME><TIME_SYSTEM>UTC</TIME_SYSTEM><MEAN_ELEMENT_THEORY>SGP4</MEAN_ELEMENT_THEORY></metadata><data><meanElements><EPOCH>2020-09-09T06:00:00.999648</EPOCH><MEAN_MOTION>15.62776177</MEAN_MOTION><ECCENTRICITY>.0001099</ECCENTRICITY><INCLINATION>53.0002</INCLINATION><RA_OF_ASC_NODE>333.9901</RA_OF_ASC_NODE><ARG_OF_PERICENTER>57.3443</ARG_OF_PERICENTER><MEAN_ANOMALY>75.4526</MEAN_ANOMALY></meanElements><tleParameters><EPHEMERIS_TYPE>0</EPHEMERIS_TYPE><CLASSIFICATION_TYPE>U</CLASSIFICATION_TYPE><NORAD_CAT_ID>46118</NORAD_CAT_ID><ELEMENT_SET_NO>999</ELEMENT_SET_NO><REV_AT_EPOCH>177</REV_AT_EPOCH><BSTAR>.28066E-3</BSTAR><MEAN_MOTION_DOT>2.5267E-4</MEAN_MOTION_DOT><MEAN_MOTION_DDOT>0</MEAN_MOTION_DDOT></tleParameters></data></segment></body></omm>
<omm id="CCSDS_OMM_VERS" version="2.0">
<header><CREATION_DATE/><ORIGINATOR/></header><body><segment><metadata><OBJECT_NAME>STARLINK-1593</OBJECT_NAME><OBJECT_ID>2020-057C</OBJECT_ID><CENTER_NAME>EARTH</CENTER_NAME><REF_FRAME>TEME</REF_FRAME><TIME_SYSTEM>UTC</TIME_SYSTEM><MEAN_ELEMENT_THEORY>SGP4</MEAN_ELEMENT_THEORY></metadata><data><meanElements><EPOCH>2020-09-09T12:00:00.999648</EPOCH><MEAN_MOTION>15.62826344</MEAN_MOTION><ECCENTRICITY>.0001315</ECCENTRICITY><INCLINATION>52.9998</INCLINATION><RA_OF_ASC_NODE>332.7577</RA_OF_ASC_NODE><ARG_OF_PERICENTER>51.5635</ARG_OF_PERICENTER><MEAN_ANOMALY>52.3699</MEAN_ANOMALY></meanElements><tleParameters><EPHEMERIS_TYPE>0</EPHEMERIS_TYPE><CLASSIFICATION_TYPE>U</CLASSIFICATION_TYPE><NORAD_CAT_ID>46119</NORAD_CAT_ID><ELEMENT_SET_NO>999</ELEMENT_SET_NO><REV_AT_EPOCH>412</REV_AT_EPOCH><BSTAR>-.11590E-2</BSTAR><MEAN_MOTION_DOT>-1.05592E-3</MEAN_MOTION_DOT><MEAN_MOTION_DDOT>0</MEAN_MOTION_DDOT></tleParameters></data></segment></body></omm>

</ndm>
